{"fetched_at":"2026-07-08T17:59:47.035Z","source":"https://celestrak.org/NORAD/elements/gp.php?NAME=GLOBAL&FORMAT=JSON","constellation":"blacksky-gen2","records":[{"OBJECT_NAME":"GLOBAL-2","OBJECT_ID":"2018-099BG","EPOCH":"2026-07-08T08:44:49.350048","CLASSIFICATION_TYPE":"U","MEAN_MOTION":15.08802375,"ECCENTRICITY":0.0007708,"INCLINATION":97.3553,"RA_OF_ASC_NODE":224.9971,"ARG_OF_PERICENTER":85.5273,"MEAN_ANOMALY":274.6836,"EPHEMERIS_TYPE":0,"NORAD_CAT_ID":43812,"ELEMENT_SET_NO":999,"REV_AT_EPOCH":41510,"BSTAR":0.00012603,"MEAN_MOTION_DOT":0.00001922,"MEAN_MOTION_DDOT":0},{"OBJECT_NAME":"GLOBAL-4","OBJECT_ID":"2019-054E","EPOCH":"2026-07-07T22:40:51.978720","CLASSIFICATION_TYPE":"U","MEAN_MOTION":15.66458654,"ECCENTRICITY":0.0004325,"INCLINATION":45.0043,"RA_OF_ASC_NODE":116.4508,"ARG_OF_PERICENTER":145.7131,"MEAN_ANOMALY":214.4047,"EPHEMERIS_TYPE":0,"NORAD_CAT_ID":44499,"ELEMENT_SET_NO":999,"REV_AT_EPOCH":38361,"BSTAR":0.0003523,"MEAN_MOTION_DOT":0.00037372,"MEAN_MOTION_DDOT":0},{"OBJECT_NAME":"GLOBAL-9","OBJECT_ID":"2021-023G","EPOCH":"2026-07-08T05:45:01.802016","CLASSIFICATION_TYPE":"U","MEAN_MOTION":15.47400053,"ECCENTRICITY":0.0002649,"INCLINATION":44.9804,"RA_OF_ASC_NODE":132.1289,"ARG_OF_PERICENTER":115.2236,"MEAN_ANOMALY":244.8929,"EPHEMERIS_TYPE":0,"NORAD_CAT_ID":47971,"ELEMENT_SET_NO":999,"REV_AT_EPOCH":29820,"BSTAR":0.00028943,"MEAN_MOTION_DOT":0.00014816,"MEAN_MOTION_DDOT":0},{"OBJECT_NAME":"GLOBAL-14","OBJECT_ID":"2021-106A","EPOCH":"2026-07-08T09:34:40.255392","CLASSIFICATION_TYPE":"U","MEAN_MOTION":15.51581768,"ECCENTRICITY":0.0016474,"INCLINATION":42.0026,"RA_OF_ASC_NODE":164.9224,"ARG_OF_PERICENTER":177.8259,"MEAN_ANOMALY":182.2659,"EPHEMERIS_TYPE":0,"NORAD_CAT_ID":49469,"ELEMENT_SET_NO":999,"REV_AT_EPOCH":26142,"BSTAR":0.00027992,"MEAN_MOTION_DOT":0.00016839,"MEAN_MOTION_DDOT":0},{"OBJECT_NAME":"GLOBAL-12","OBJECT_ID":"2021-115BA","EPOCH":"2026-07-08T07:02:40.875360","CLASSIFICATION_TYPE":"U","MEAN_MOTION":15.54996378,"ECCENTRICITY":0.0002651,"INCLINATION":53.1954,"RA_OF_ASC_NODE":302.9559,"ARG_OF_PERICENTER":69.1864,"MEAN_ANOMALY":290.9432,"EPHEMERIS_TYPE":0,"NORAD_CAT_ID":49772,"ELEMENT_SET_NO":999,"REV_AT_EPOCH":25918,"BSTAR":0.00036341,"MEAN_MOTION_DOT":0.00024393,"MEAN_MOTION_DDOT":0},{"OBJECT_NAME":"GLOBAL-13","OBJECT_ID":"2021-115BB","EPOCH":"2026-07-08T09:10:21.184896","CLASSIFICATION_TYPE":"U","MEAN_MOTION":15.46919856,"ECCENTRICITY":0.0001412,"INCLINATION":53.1976,"RA_OF_ASC_NODE":313.7706,"ARG_OF_PERICENTER":151.1832,"MEAN_ANOMALY":208.9255,"EPHEMERIS_TYPE":0,"NORAD_CAT_ID":49773,"ELEMENT_SET_NO":999,"REV_AT_EPOCH":25904,"BSTAR":0.00029266,"MEAN_MOTION_DOT":0.00014567,"MEAN_MOTION_DDOT":0},{"OBJECT_NAME":"GLOBAL-17","OBJECT_ID":"2021-120A","EPOCH":"2026-07-08T07:31:37.085088","CLASSIFICATION_TYPE":"U","MEAN_MOTION":15.53445038,"ECCENTRICITY":0.0013822,"INCLINATION":41.9949,"RA_OF_ASC_NODE":283.3018,"ARG_OF_PERICENTER":38.0757,"MEAN_ANOMALY":322.1062,"EPHEMERIS_TYPE":0,"NORAD_CAT_ID":49949,"ELEMENT_SET_NO":999,"REV_AT_EPOCH":25818,"BSTAR":0.00033781,"MEAN_MOTION_DOT":0.00021805,"MEAN_MOTION_DDOT":0},{"OBJECT_NAME":"GLOBAL-16","OBJECT_ID":"2021-120B","EPOCH":"2026-07-08T11:38:21.617088","CLASSIFICATION_TYPE":"U","MEAN_MOTION":15.51247181,"ECCENTRICITY":0.0012112,"INCLINATION":41.9954,"RA_OF_ASC_NODE":286.4179,"ARG_OF_PERICENTER":28.3168,"MEAN_ANOMALY":331.8332,"EPHEMERIS_TYPE":0,"NORAD_CAT_ID":49950,"ELEMENT_SET_NO":999,"REV_AT_EPOCH":25815,"BSTAR":0.00031716,"MEAN_MOTION_DOT":0.00018849,"MEAN_MOTION_DDOT":0},{"OBJECT_NAME":"GLOBAL-18","OBJECT_ID":"2022-034B","EPOCH":"2026-07-08T07:41:43.363392","CLASSIFICATION_TYPE":"U","MEAN_MOTION":15.47012171,"ECCENTRICITY":0.0004247,"INCLINATION":52.9807,"RA_OF_ASC_NODE":155.58,"ARG_OF_PERICENTER":5.6496,"MEAN_ANOMALY":354.4557,"EPHEMERIS_TYPE":0,"NORAD_CAT_ID":52196,"ELEMENT_SET_NO":999,"REV_AT_EPOCH":24023,"BSTAR":0.00028048,"MEAN_MOTION_DOT":0.0001399,"MEAN_MOTION_DDOT":0},{"OBJECT_NAME":"GLOBAL-19","OBJECT_ID":"2023-041B","EPOCH":"2026-07-08T01:41:01.710816","CLASSIFICATION_TYPE":"U","MEAN_MOTION":15.38551274,"ECCENTRICITY":0.0008394,"INCLINATION":42.0014,"RA_OF_ASC_NODE":80.0626,"ARG_OF_PERICENTER":170.296,"MEAN_ANOMALY":189.8043,"EPHEMERIS_TYPE":0,"NORAD_CAT_ID":55982,"ELEMENT_SET_NO":999,"REV_AT_EPOCH":18514,"BSTAR":0.00020987,"MEAN_MOTION_DOT":0.00007915,"MEAN_MOTION_DDOT":0},{"OBJECT_NAME":"GLOBAL-5","OBJECT_ID":"2023-041C","EPOCH":"2026-07-07T23:21:12.974112","CLASSIFICATION_TYPE":"U","MEAN_MOTION":15.38561915,"ECCENTRICITY":0.000721,"INCLINATION":42.0005,"RA_OF_ASC_NODE":80.1562,"ARG_OF_PERICENTER":164.324,"MEAN_ANOMALY":195.7824,"EPHEMERIS_TYPE":0,"NORAD_CAT_ID":55983,"ELEMENT_SET_NO":999,"REV_AT_EPOCH":18513,"BSTAR":0.00021888,"MEAN_MOTION_DOT":0.00008268,"MEAN_MOTION_DDOT":0}]}
